STARLINK-35640          
1 66536U 25265W   26159.58775132  .00027129  00000+0  99124-3 0  9995
2 66536  43.0002 124.7151 0001918 273.4416  86.6216 15.27595893 31012
STARLINK-35582          
1 66537U 25265X   26159.18769257  .00001953  00000+0  80464-4 0  9998
2 66537  43.0019 126.8688 0000303 257.1160 102.9658 15.27585306 30953
STARLINK-35577          
1 66538U 25265Y   26159.18386880  .00021848  00000+0  80073-3 0  9996
2 66538  43.0036 126.8423 0001443 270.5281  89.5405 15.27595475 30957
STARLINK-35697          
1 66539U 25265Z   26159.17743442  .00020385  00000+0  74810-3 0  9994
2 66539  43.0035 126.7919 0003067 274.3630  85.6871 15.27584617 30950
STARLINK-35818          
1 66540U 25265AA  26159.61088909  .00017584  00000+0  64689-3 0  9995
2 66540  43.0086 124.8894 0000535  84.2100 275.8812 15.27585673 31015
STARLINK-35796          
1 66541U 25265AB  26159.19415121  .00022400  00000+0  82072-3 0  9998
2 66541  43.0044 126.9250 0000471 224.6647 135.4167 15.27593147 30955
STARLINK-35833          
1 66542U 25265AC  26159.61345929  .00018415  00000+0  67691-3 0  9995
2 66542  43.0017 124.9144 0000610 113.3563 246.7353 15.27586714 31015
STARLINK-35315          
1 66543U 25265AD  26159.20314397  .00014506  00000+0  53556-3 0  9998
2 66543  42.9976 126.9926 0000645 207.3770 152.7048 15.27583614 30955
STARLINK-35728          
1 66544U 25265AE  26159.62744263  .00019385  00000+0  71173-3 0  9999
2 66544  43.0027 124.1483 0000500  68.7950 291.2955 15.27597391 31024
STARLINK-35699          
1 66557U 25268A   26158.39198681  .00015101  00000+0  55692-3 0  9996
2 66557  43.0100 200.9072 0003793 282.5315  77.5113 15.27590429 31672
STARLINK-35695          
1 66558U 25268B   26159.36892604  .00011642  00000+0  43168-3 0  9992
2 66558  43.0030 195.3351 0005028 276.4290  83.5989 15.27589975 31828
STARLINK-35419          
1 66559U 25268C   26158.82400117  .00013235  00000+0  48949-3 0  9999
2 66559  43.0037 198.1215 0001462 273.1411  86.9273 15.27587709 31740
STARLINK-35411          
1 66560U 25268D   26159.80221632  .00022059  00000+0  80842-3 0  9995
2 66560  43.0047 192.5639 0001843 273.0304  87.0337 15.27592492 31898
STARLINK-35305          
1 66561U 25268E   26159.79450385  .00022972  00000+0  84132-3 0  9993
2 66561  42.9966 192.5039 0002023 265.0497  95.0124 15.27594019 31896
STARLINK-35579          
1 66562U 25268F   26159.40604250  .00014351  00000+0  52980-3 0  9992
2 66562  43.0025 194.7477 0001046 277.9394  82.1339 15.27593811 31835
STARLINK-35437          
1 66563U 25268G   26159.79064772  .00022237  00000+0  81474-3 0  9996
2 66563  42.9925 192.4715 0002100 271.6642  88.3969 15.27596313 31895
STARLINK-35358          
1 66564U 25268H   26159.78679329  .00019676  00000+0  72227-3 0  9995
2 66564  42.9995 192.4395 0002057 279.6063  80.4556 15.27595808 31896
STARLINK-35893          
1 66565U 25268J   26159.78293807  .00024678  00000+0  90272-3 0  9997
2 66565  42.9950 192.4077 0001694 282.3050  77.7611 15.27600751 31893
STARLINK-35871          
1 66566U 25268K   26159.78035872  .00026717  00000+0  97606-3 0  9998
2 66566  42.9925 192.3863 0002719 278.6756  81.3788 15.27605684 31894
STARLINK-35825          
1 66567U 25268L   26159.77651744  .00016123  00000+0  59366-3 0  9991
2 66567  42.9960 192.3572 0001961 288.5042  71.5597 15.27606281 31890
STARLINK-35803          
1 66568U 25268M   26158.39826183  .00022409  00000+0  82115-3 0  9992
2 66568  42.9972 200.0758 0000252 175.5505 184.5349 15.27589516 31686
STARLINK-35835          
1 66569U 25268N   26158.39568903  .00019605  00000+0  71983-3 0  9991
2 66569  43.0014 200.0564 0001085 274.8809  85.1919 15.27590670 31688
STARLINK-35834          
1 66570U 25268P   26158.39326891  .00014568  00000+0  53777-3 0  9995
2 66570  42.9988 200.9093 0002067 274.7267  85.3348 15.27585243 31679
STARLINK-35836          
1 66571U 25268Q   26159.37021008  .00017974  00000+0  66088-3 0  9990
2 66571  42.9994 195.3384 0001433 259.6348 100.4342 15.27590482 31826
STARLINK-35870          
1 66572U 25268R   26159.82149448  .00025666  00000+0  93828-3 0  9999
2 66572  42.9990 192.7073 0000655 258.7116 101.3662 15.27603683 31897
STARLINK-35650          
1 66573U 25268S   26159.81762593  .00014527  00000+0  53598-3 0  9995
2 66573  43.0036 192.6774 0002259 265.3172  94.7422 15.27604603 31898
STARLINK-35812          
1 66574U 25268T   26159.55223678  .00022387  00000+0  82023-3 0  9991
2 66574  43.0011 194.1316 0001748 293.4964  66.5704 15.27593347 31852
STARLINK-35810          
1 66575U 25268U   26159.80992338  .00022188  00000+0  81304-3 0  9996
2 66575  43.0019 192.6208 0002172 269.1873  90.8730 15.27593226 31894
STARLINK-35814          
1 66576U 25268V   26159.80605463  .00022679  00000+0  83043-3 0  9994
2 66576  43.0016 192.5919 0004235 263.9491  96.0878 15.27602098 31899
STARLINK-35815          
1 66577U 25268W   26159.40732214  .00011547  00000+0  42831-3 0  9998
2 66577  42.9999 194.7532 0001227 266.1830  93.8881 15.27591647 31833
